start=new Date('2022-10-21T00:00:00.000Z').valueOf();
sats=[{"COUNTRY_CODE":"US","TIME_SYSTEM":"UTC","LAUNCH_DATE":"2022-05-13","PERIOD":"95.438","MEAN_ELEMENT_THEORY":"SGP4","OBJECT_NAME":"STARLINK-3897","DECAY_DATE":null,"EPHEMERIS_TYPE":"0","BSTAR":"-0.00007762300000","ECCENTRICITY":"0.00020070","REV_AT_EPOCH":"2484","OBJECT_ID":"2022-051E","TLE_LINE2":"2 52537  53.2171 277.8759 0002007  44.0808 316.0344 15.08839475 24840","NORAD_CAT_ID":"52537","MEAN_ANOMALY":"316.0344","CLASSIFICATION_TYPE":"U","RA_OF_ASC_NODE":"277.8759","RCS_SIZE":"LARGE","REF_FRAME":"TEME","ARG_OF_PERICENTER":"44.0808","EPOCH":"2022-10-20T15:54:41.917824","SEMIMAJOR_AXIS":"6917.882","OBJECT_TYPE":"PAYLOAD","TLE_LINE1":"1 52537U 22051E   22293.66298516 -.00001523  00000-0 -77623-4 0  9995","FILE":"3626396","SITE":"AFWTR","GP_ID":"215726238","CENTER_NAME":"EARTH","PERIAPSIS":"538.359","APOAPSIS":"541.135","ELEMENT_SET_NO":"999","MEAN_MOTION":"15.08839475","MEAN_MOTION_DDOT":"0.0000000000000","INCLINATION":"53.2171","MEAN_MOTION_DOT":"-0.00001523"},{"MEAN_ANOMALY":"319.2462","NORAD_CAT_ID":"52538","TLE_LINE2":"2 52538  53.2153 277.9031 0002014  40.8681 319.2462 15.08836757 24842","OBJECT_ID":"2022-051F","REV_AT_EPOCH":"2484","ECCENTRICITY":"0.00020140","SEMIMAJOR_AXIS":"6917.890","EPOCH":"2022-10-20T15:44:05.676000","ARG_OF_PERICENTER":"40.8681","REF_FRAME":"TEME","RCS_SIZE":"LARGE","RA_OF_ASC_NODE":"277.9031","CLASSIFICATION_TYPE":"U","COUNTRY_CODE":"US","EPHEMERIS_TYPE":"0","BSTAR":"0.00004798100000","DECAY_DATE":null,"OBJECT_NAME":"STARLINK-3933","PERIOD":"95.438","MEAN_ELEMENT_THEORY":"SGP4","LAUNCH_DATE":"2022-05-13","TIME_SYSTEM":"UTC","MEAN_MOTION":"15.08836757","ELEMENT_SET_NO":"999","MEAN_MOTION_DOT":"0.00000475","INCLINATION":"53.2153","MEAN_MOTION_DDOT":"0.0000000000000","GP_ID":"215726490","CENTER_NAME":"EARTH","SITE":"AFWTR","FILE":"3626396","TLE_LINE1":"1 52538U 22051F   22293.65562125  .00000475  00000-0  47981-4 0  9992","OBJECT_TYPE":"PAYLOAD","APOAPSIS":"541.149","PERIAPSIS":"538.362"},{"GP_ID":"215690510","CENTER_NAME":"EARTH","SITE":"AFWTR","FILE":"3625892","TLE_LINE1":"1 52539U 22051G   22293.32810452 -.00000505  00000-0 -13621-4 0  9996","OBJECT_TYPE":"PAYLOAD","PERIAPSIS":"538.310","APOAPSIS":"541.172","MEAN_MOTION":"15.08841481","ELEMENT_SET_NO":"999","MEAN_MOTION_DOT":"-0.00000505","MEAN_MOTION_DDOT":"0.0000000000000","INCLINATION":"53.2163","COUNTRY_CODE":"US","BSTAR":"-0.00001362100000","EPHEMERIS_TYPE":"0","DECAY_DATE":null,"OBJECT_NAME":"STARLINK-3757","MEAN_ELEMENT_THEORY":"SGP4","PERIOD":"95.437","LAUNCH_DATE":"2022-05-13","TIME_SYSTEM":"UTC","MEAN_ANOMALY":"320.6190","TLE_LINE2":"2 52539  53.2163 279.3758 0002069  39.4953 320.6190 15.08841481 24790","NORAD_CAT_ID":"52539","OBJECT_ID":"2022-051G","REV_AT_EPOCH":"2479","ECCENTRICITY":"0.00020690","SEMIMAJOR_AXIS":"6917.876","EPOCH":"2022-10-20T07:52:28.230528","ARG_OF_PERICENTER":"39.4953","RCS_SIZE":"LARGE","REF_FRAME":"TEME","CLASSIFICATION_TYPE":"U","RA_OF_ASC_NODE":"279.3758"},{"ELEMENT_SET_NO":"999","MEAN_MOTION":"15.08843435","INCLINATION":"53.2166","MEAN_MOTION_DDOT":"0.0000000000000","MEAN_MOTION_DOT":"0.00000676","TLE_LINE1":"1 52540U 22051H   22293.77705778  .00000676  00000-0  60592-4 0  9997","OBJECT_TYPE":"PAYLOAD","FILE":"3626396","SITE":"AFWTR","GP_ID":"215726973","CENTER_NAME":"EARTH","PERIAPSIS":"538.521","APOAPSIS":"540.949","ECCENTRICITY":"0.00017550","REV_AT_EPOCH":"2486","OBJECT_ID":"2022-051H","TLE_LINE2":"2 52540  53.2166 277.3559 0001755  31.2965 328.8131 15.08843435 24860","NORAD_CAT_ID":"52540","MEAN_ANOMALY":"328.8131","CLASSIFICATION_TYPE":"U","RA_OF_ASC_NODE":"277.3559","RCS_SIZE":"LARGE","REF_FRAME":"TEME","ARG_OF_PERICENTER":"31.2965","EPOCH":"2022-10-20T18:38:57.792192","SEMIMAJOR_AXIS":"6917.870","COUNTRY_CODE":"US","TIME_SYSTEM":"UTC","LAUNCH_DATE":"2022-05-13","MEAN_ELEMENT_THEORY":"SGP4","PERIOD":"95.437","OBJECT_NAME":"STARLINK-3940","DECAY_DATE":null,"BSTAR":"0.00006059200000","EPHEMERIS_TYPE":"0"},{"APOAPSIS":"541.023","PERIAPSIS":"538.463","CENTER_NAME":"EARTH","GP_ID":"215692011","OBJECT_TYPE":"PAYLOAD","TLE_LINE1":"1 52541U 22051J   22293.34788102 -.00000006  00000-0  17736-4 0  9993","SITE":"AFWTR","FILE":"3625892","MEAN_MOTION_DOT":"-0.00000006","MEAN_MOTION_DDOT":"0.0000000000000","INCLINATION":"53.2150","MEAN_MOTION":"15.08840818","ELEMENT_SET_NO":"999","DECAY_DATE":null,"OBJECT_NAME":"STARLINK-3845","PERIOD":"95.438","MEAN_ELEMENT_THEORY":"SGP4","EPHEMERIS_TYPE":"0","BSTAR":"0.00001773600000","LAUNCH_DATE":"2022-05-13","TIME_SYSTEM":"UTC","COUNTRY_CODE":"US","ARG_OF_PERICENTER":"47.4886","EPOCH":"2022-10-20T08:20:56.920128","SEMIMAJOR_AXIS":"6917.878","CLASSIFICATION_TYPE":"U","RA_OF_ASC_NODE":"284.2760","RCS_SIZE":"LARGE","REF_FRAME":"TEME","MEAN_ANOMALY":"312.6263","TLE_LINE2":"2 52541  53.2150 284.2760 0001850  47.4886 312.6263 15.08840818 24726","NORAD_CAT_ID":"52541","REV_AT_EPOCH":"2472","ECCENTRICITY":"0.00018500","OBJECT_ID":"2022-051J"},{"COUNTRY_CODE":"US","EPHEMERIS_TYPE":"0","BSTAR":"-0.00003354200000","MEAN_ELEMENT_THEORY":"SGP4","PERIOD":"95.437","DECAY_DATE":null,"OBJECT_NAME":"STARLINK-3937","TIME_SYSTEM":"UTC","LAUNCH_DATE":"2022-05-13","NORAD_CAT_ID":"52542","TLE_LINE2":"2 52542  53.2189 279.1480 0002206  41.7791 318.3369 15.08843629 24801","MEAN_ANOMALY":"318.3369","OBJECT_ID":"2022-051K","ECCENTRICITY":"0.00022060","REV_AT_EPOCH":"2480","SEMIMAJOR_AXIS":"6917.869","EPOCH":"2022-10-20T09:01:21.565056","ARG_OF_PERICENTER":"41.7791","RCS_SIZE":"LARGE","REF_FRAME":"TEME","RA_OF_ASC_NODE":"279.1480","CLASSIFICATION_TYPE":"U","CENTER_NAME":"EARTH","GP_ID":"215692248","FILE":"3625892","SITE":"AFWTR","TLE_LINE1":"1 52542U 22051K   22293.37594404 -.00000822  00000-0 -33542-4 0  9997","OBJECT_TYPE":"PAYLOAD","PERIAPSIS":"538.208","APOAPSIS":"541.260","MEAN_MOTION":"15.08843629","ELEMENT_SET_NO":"999","MEAN_MOTION_DOT":"-0.00000822","MEAN_MOTION_DDOT":"0.0000000000000","INCLINATION":"53.2189"},{"OBJECT_NAME":"STARLINK-3926","DECAY_DATE":null,"PERIOD":"95.438","MEAN_ELEMENT_THEORY":"SGP4","EPHEMERIS_TYPE":"0","BSTAR":"0.00004541500000","LAUNCH_DATE":"2022-05-13","TIME_SYSTEM":"UTC","COUNTRY_CODE":"US","ARG_OF_PERICENTER":"44.4534","EPOCH":"2022-10-20T15:38:47.640192","SEMIMAJOR_AXIS":"6917.890","CLASSIFICATION_TYPE":"U","RA_OF_ASC_NODE":"277.9202","RCS_SIZE":"LARGE","REF_FRAME":"TEME","MEAN_ANOMALY":"315.6642","TLE_LINE2":"2 52543  53.2169 277.9202 0002298  44.4534 315.6642 15.08836865 24846","NORAD_CAT_ID":"52543","REV_AT_EPOCH":"2484","ECCENTRICITY":"0.00022980","OBJECT_ID":"2022-051L","PERIAPSIS":"538.165","APOAPSIS":"541.345","CENTER_NAME":"EARTH","GP_ID":"215726740","TLE_LINE1":"1 52543U 22051L   22293.65194028  .00000434  00000-0  45415-4 0  9996","OBJECT_TYPE":"PAYLOAD","SITE":"AFWTR","FILE":"3626396","MEAN_MOTION_DOT":"0.00000434","INCLINATION":"53.2169","MEAN_MOTION_DDOT":"0.0000000000000","MEAN_MOTION":"15.08836865","ELEMENT_SET_NO":"999"},{"ELEMENT_SET_NO":"999","MEAN_MOTION":"15.08848742","INCLINATION":"53.2167","MEAN_MOTION_DDOT":"0.0000000000000","MEAN_MOTION_DOT":"-0.00000171","OBJECT_TYPE":"PAYLOAD","TLE_LINE1":"1 52544U 22051M   22293.34052746 -.00000171  00000-0  73966-5 0  9995","SITE":"AFWTR","FILE":"3625892","GP_ID":"215691761","CENTER_NAME":"EARTH","APOAPSIS":"541.525","PERIAPSIS":"537.912","REV_AT_EPOCH":"2472","ECCENTRICITY":"0.00026110","OBJECT_ID":"2022-051M","MEAN_ANOMALY":"326.2535","TLE_LINE2":"2 52544  53.2167 284.3200 0002611  33.8623 326.2535 15.08848742 24728","NORAD_CAT_ID":"52544","CLASSIFICATION_TYPE":"U","RA_OF_ASC_NODE":"284.3200","REF_FRAME":"TEME","RCS_SIZE":"LARGE","ARG_OF_PERICENTER":"33.8623","EPOCH":"2022-10-20T08:10:21.572544","SEMIMAJOR_AXIS":"6917.854","COUNTRY_CODE":"US","LAUNCH_DATE":"2022-05-13","TIME_SYSTEM":"UTC","OBJECT_NAME":"STARLINK-3944","DECAY_DATE":null,"PERIOD":"95.437","MEAN_ELEMENT_THEORY":"SGP4","BSTAR":"0.00000739660000","EPHEMERIS_TYPE":"0"},{"MEAN_MOTION_DOT":"0.00000558","INCLINATION":"53.2178","MEAN_MOTION_DDOT":"0.0000000000000","MEAN_MOTION":"15.08837208","ELEMENT_SET_NO":"999","PERIAPSIS":"538.220","APOAPSIS":"541.288","CENTER_NAME":"EARTH","GP_ID":"215691512","TLE_LINE1":"1 52545U 22051N   22293.38330318  .00000558  00000-0  53203-4 0  9993","OBJECT_TYPE":"PAYLOAD","FILE":"3625892","SITE":"AFWTR","ARG_OF_PERICENTER":"41.0456","EPOCH":"2022-10-20T09:11:57.394752","SEMIMAJOR_AXIS":"6917.889","RA_OF_ASC_NODE":"279.1285","CLASSIFICATION_TYPE":"U","REF_FRAME":"TEME","RCS_SIZE":"LARGE","TLE_LINE2":"2 52545  53.2178 279.1285 0002218  41.0456 319.0702 15.08837208 24804","NORAD_CAT_ID":"52545","MEAN_ANOMALY":"319.0702","ECCENTRICITY":"0.00022180","REV_AT_EPOCH":"2480","OBJECT_ID":"2022-051N","PERIOD":"95.438","MEAN_ELEMENT_THEORY":"SGP4","DECAY_DATE":null,"OBJECT_NAME":"STARLINK-3939","EPHEMERIS_TYPE":"0","BSTAR":"0.00005320300000","TIME_SYSTEM":"UTC","LAUNCH_DATE":"2022-05-13","COUNTRY_CODE":"US"},{"COUNTRY_CODE":"US","LAUNCH_DATE":"2022-05-13","TIME_SYSTEM":"UTC","EPHEMERIS_TYPE":"0","BSTAR":"0.00006545700000","DECAY_DATE":null,"OBJECT_NAME":"STARLINK-3948","MEAN_ELEMENT_THEORY":"SGP4","PERIOD":"95.438","OBJECT_ID":"2022-051P","REV_AT_EPOCH":"2485","ECCENTRICITY":"0.00024850","MEAN_ANOMALY":"318.7340","TLE_LINE2":"2 52546  53.2189 277.6938 0002485  41.3840 318.7340 15.08835487 24857","NORAD_CAT_ID":"52546","RCS_SIZE":"LARGE","REF_FRAME":"TEME","CLASSIFICATION_TYPE":"U","RA_OF_ASC_NODE":"277.6938","SEMIMAJOR_AXIS":"6917.894","ARG_OF_PERICENTER":"41.3840","EPOCH":"2022-10-20T16:49:03.959328","SITE":"AFWTR","FILE":"3626396","OBJECT_TYPE":"PAYLOAD","TLE_LINE1":"1 52546U 22051P   22293.70074027  .00000753  00000-0  65457-4 0  9993","CENTER_NAME":"EARTH","GP_ID":"215726491","PERIAPSIS":"538.040","APOAPSIS":"541.478","ELEMENT_SET_NO":"999","MEAN_MOTION":"15.08835487","INCLINATION":"53.2189","MEAN_MOTION_DDOT":"0.0000000000000","MEAN_MOTION_DOT":"0.00000753"}];
